ONEWEB-0080             
1 45426U 20020C   25162.54360844 -.00000252  00000+0 -74755-3 0  9996
2 45426  87.8843  94.9392 0002081  90.2632 269.8735 13.11423460254130
ONEWEB-0090             
1 45427U 20020D   25162.33421171  .00000580  00000+0  16014-2 0  9990
2 45427  87.8845  94.9809 0002044  79.7904 280.3454 13.11420036254074
ONEWEB-0061             
1 45428U 20020E   25161.83220265 -.00000410  00000+0 -11922-2 0  9993
2 45428  87.8838  95.0639 0001972  80.7949 279.3402 13.11414015253957
ONEWEB-0081             
1 45429U 20020F   25161.81370138  .00000326  00000+0  88524-3 0  9994
2 45429  87.8839  95.0881 0001794  81.1291 279.0040 13.11414653254061
ONEWEB-0069             
1 45430U 20020G   25162.33677249  .00000571  00000+0  15742-2 0  9990
2 45430  87.8843  94.9740 0001909  77.1701 282.9640 13.11417688254070
ONEWEB-0031             
1 45431U 20020H   25162.53766938 -.00000451  00000+0 -13079-2 0  9997
2 45431  87.8850  94.9632 0002215  82.2969 277.8410 13.11417842254073
ONEWEB-0027             
1 45432U 20020J   25161.82697092 -.00000053  00000+0 -16965-3 0  9999
2 45432  87.9066  79.7799 0002255  73.8648 286.2732 13.17650279257458
ONEWEB-0064             
1 45433U 20020K   25162.53596829 -.00000759  00000+0 -21781-2 0  9999
2 45433  87.8844  94.9572 0002191  79.8030 280.3344 13.11417298254110
